{
  "name": "SATGUS",
  "line1": "1 62713U 25009DJ  25265.53708997  .00009367  00000+0  82981-3 0  9998",
  "line2": "2 62713  97.7289 344.5964 0001188 338.2592  21.8579 14.96458970 37463",
  "fetched_at": "2025-09-23T00:17:38.319295+00:00"
}